COMMENT,ORIGINATOR,NORAD_CAT_ID,OBJECT_NAME,OBJECT_TYPE,CLASSIFICATION_TYPE,INTLDES,EPOCH,EPOCH_MICROSECONDS,MEAN_MOTION,ECCENTRICITY,INCLINATION,RA_OF_ASC_NODE,ARG_OF_PERICENTER,MEAN_ANOMALY,EPHEMERIS_TYPE,ELEMENT_SET_NO,REV_AT_EPOCH,BSTAR,MEAN_MOTION_DOT,MEAN_MOTION_DDOT,FILE,TLE_LINE0,TLE_LINE1,TLE_LINE2,OBJECT_ID,OBJECT_NUMBER,SEMIMAJOR_AXIS,PERIOD,APOGEE,PERIGEE,DECAYED,date
GENERATED VIA SPACETRACK.ORG API,18 SPCS,48893,SPACEBEE-106,PAYLOAD,U,21059Q,2023/2/4 8:53,167360,15.21995628,0.0008451,97.5791,170.2432,19.1412,341.014,0,999,8912,0.00097054,0.00022154,0,3771952,0 SPACEBEE-106,1 48893U 21059Q   23035.37015240  .00022154  00000-0  97054-3 0  9996,2 48893  97.5791 170.2432 0008451  19.1412 341.0140 15.21995628 89128,2021-059Q,48893,6877.959,94.613,505.636,494.011,0,2023/3/11
GENERATED VIA SPACETRACK.ORG API,18 SPCS,48893,SPACEBEE-106,PAYLOAD,U,21059Q,2023/2/4 21:30,826240,15.22015752,0.0008391,97.5792,170.7733,17.4117,342.7405,0,999,8920,0.00077838,0.00017753,0,3772514,0 SPACEBEE-106,1 48893U 21059Q   23035.89610910  .00017753  00000-0  77838-3 0  9995,2 48893  97.5792 170.7733 0008391  17.4117 342.7405 15.22015752 89207,2021-059Q,48893,6877.898,94.611,505.534,493.992,0,2023/3/12
GENERATED VIA SPACETRACK.ORG API,18 SPCS,48893,SPACEBEE-106,PAYLOAD,U,21059Q,2023/2/5 10:07,852672,15.22037019,0.0008401,97.5794,171.3035,15.612,344.5373,0,999,8928,0.00080384,0.00018349,0,3773249,0 SPACEBEE-106,1 48893U 21059Q   23036.42205848  .00018349  00000-0  80384-3 0  9997,2 48893  97.5794 171.3035 0008401  15.6120 344.5373 15.22037019 89289,2021-059Q,48893,6877.834,94.61,505.477,493.921,0,2023/3/13
GENERATED VIA SPACETRACK.ORG API,18 SPCS,48893,SPACEBEE-106,PAYLOAD,U,21059Q,2023/2/5 10:07,852672,15.22037019,0.0008401,97.5794,171.3035,15.612,344.5373,0,999,8928,0.00080384,0.00018349,0,3773728,0 SPACEBEE-106,1 48893U 21059Q   23036.42205848  .00018349  00000-0  80384-3 0  9997,2 48893  97.5794 171.3035 0008401  15.6120 344.5373 15.22037019 89289,2021-059Q,48893,6877.834,94.61,505.477,493.921,0,2023/3/14
GENERATED VIA SPACETRACK.ORG API,18 SPCS,48893,SPACEBEE-106,PAYLOAD,U,21059Q,2023/2/5 21:10,90336,15.22056786,0.0008334,97.5794,171.7672,13.8208,346.3254,0,999,8935,0.0008412,0.00019218,0,3774172,0 SPACEBEE-106,1 48893U 21059Q   23036.88225799  .00019218  00000-0  84120-3 0  9992,2 48893  97.5794 171.7672 0008334  13.8208 346.3254 15.22056786 89350,2021-059Q,48893,6877.775,94.609,505.372,493.908,0,2023/3/15
GENERATED VIA SPACETRACK.ORG API,18 SPCS,48893,SPACEBEE-106,PAYLOAD,U,21059Q,2023/2/6 8:13,806144,15.22078921,0.0008386,97.5794,172.2312,11.5807,348.562,0,999,8942,0.0010338,0.00023665,0,3775254,0 SPACEBEE-106,1 48893U 21059Q   23037.34245146  .00023665  00000-0  10338-2 0  9992,2 48893  97.5794 172.2312 0008386  11.5807 348.5620 15.22078921 89428,2021-059Q,48893,6877.708,94.607,505.341,493.805,0,2023/3/16
GENERATED VIA SPACETRACK.ORG API,18 SPCS,48893,SPACEBEE-106,PAYLOAD,U,21059Q,2023/2/6 14:31,902656,15.22094313,0.0008344,97.5794,172.4959,10.5948,349.5462,0,999,8946,0.0011704,0.00026824,0,3775509,0 SPACEBEE-106,1 48893U 21059Q   23037.60541554  .00026824  00000-0  11704-2 0  9991,2 48893  97.5794 172.4959 0008344  10.5948 349.5462 15.22094313 89468,2021-059Q,48893,6877.662,94.606,505.265,493.788,0,2023/3/17
GENERATED VIA SPACETRACK.ORG API,18 SPCS,48893,SPACEBEE-106,PAYLOAD,U,21059Q,2023/2/6 20:50,808224,15.2210863,0.0008322,97.5795,172.761,9.5776,350.5617,0,999,8950,0.0011493,0.00026349,0,3776034,0 SPACEBEE-106,1 48893U 21059Q   23037.86837741  .00026349  00000-0  11493-2 0  9992,2 48893  97.5795 172.7610 0008322   9.5776 350.5617 15.22108630 89506,2021-059Q,48893,6877.618,94.606,505.207,493.76,0,2023/3/18
GENERATED VIA SPACETRACK.ORG API,18 SPCS,48893,SPACEBEE-106,PAYLOAD,U,21059Q,2023/2/7 14:11,258368,15.22155579,0.0008351,97.5796,173.4898,6.9217,353.2132,0,999,8961,0.0013679,0.00031439,0,3777208,0 SPACEBEE-106,1 48893U 21059Q   23038.59150762  .00031439  00000-0  13679-2 0  9998,2 48893  97.5796 173.4898 0008351   6.9217 353.2132 15.22155579 89614,2021-059Q,48893,6877.477,94.603,505.085,493.599,0,2023/3/19
GENERATED VIA SPACETRACK.ORG API,18 SPCS,48893,SPACEBEE-106,PAYLOAD,U,21059Q,2023/2/7 22:05,916256,15.22176945,0.0008328,97.5796,173.8211,6.0913,354.0422,0,999,8966,0.0013197,0.00030343,0,3777976,0 SPACEBEE-106,1 48893U 21059Q   23038.92019579  .00030343  00000-0  13197-2 0  9993,2 48893  97.5796 173.8211 0008328   6.0913 354.0422 15.22176945 89661,2021-059Q,48893,6877.413,94.601,505.005,493.55,0,2023/3/20
GENERATED VIA SPACETRACK.ORG API,18 SPCS,48893,SPACEBEE-106,PAYLOAD,U,21059Q,2023/2/7 22:05,916256,15.22176945,0.0008328,97.5796,173.8211,6.0913,354.0422,0,999,8966,0.0013197,0.00030343,0,3778167,0 SPACEBEE-106,1 48893U 21059Q   23038.92019579  .00030343  00000-0  13197-2 0  9993,2 48893  97.5796 173.8211 0008328   6.0913 354.0422 15.22176945 89661,2021-059Q,48893,6877.413,94.601,505.005,493.55,0,2023/3/21
GENERATED VIA SPACETRACK.ORG API,18 SPCS,48893,SPACEBEE-106,PAYLOAD,U,21059Q,2023/2/8 7:33,669472,15.2220644,0.0008374,97.5796,174.2189,4.845,355.2866,0,999,8972,0.0013978,0.00032179,0,3780324,0 SPACEBEE-106,1 48893U 21059Q   23039.31461423  .00032179  00000-0  13978-2 0  9992,2 48893  97.5796 174.2189 0008374   4.8450 355.2866 15.22206440 89729,2021-059Q,48893,6877.324,94.6,504.948,493.43,0,2023/3/22
GENERATED VIA SPACETRACK.ORG API,18 SPCS,48893,SPACEBEE-106,PAYLOAD,U,21059Q,2023/2/8 21:44,141536,15.22251212,0.0008354,97.5797,174.8152,2.8601,357.2681,0,999,8981,0.0015179,0.0003501,0,3780893,0 SPACEBEE-106,1 48893U 21059Q   23039.90622849  .00035010  00000-0  15179-2 0  9990,2 48893  97.5797 174.8152 0008354   2.8601 357.2681 15.22251212 89814,2021-059Q,48893,6877.189,94.597,504.799,493.309,0,2023/3/23
GENERATED VIA SPACETRACK.ORG API,18 SPCS,48893,SPACEBEE-106,PAYLOAD,U,21059Q,2023/2/9 2:28,289792,15.22266805,0.0008341,97.5797,175.0139,2.2635,357.8637,0,999,8984,0.0016241,0.00037494,0,3781330,0 SPACEBEE-106,1 48893U 21059Q   23040.10342928  .00037494  00000-0  16241-2 0  9990,2 48893  97.5797 175.0139 0008341   2.2635 357.8637 15.22266805 89843,2021-059Q,48893,6877.142,94.596,504.743,493.271,0,2023/3/24
GENERATED VIA SPACETRACK.ORG API,18 SPCS,48893,SPACEBEE-106,PAYLOAD,U,21059Q,2023/2/9 8:47,569664,15.22287476,0.0008349,97.5797,175.279,1.699,358.4272,0,999,8988,0.001602,0.00037003,0,3782313,0 SPACEBEE-106,1 48893U 21059Q   23040.36636076  .00037003  00000-0  16020-2 0  9999,2 48893  97.5797 175.2790 0008349   1.6990 358.4272 15.22287476 89886,2021-059Q,48893,6877.08,94.594,504.686,493.203,0,2023/3/25
GENERATED VIA SPACETRACK.ORG API,18 SPCS,48893,SPACEBEE-106,PAYLOAD,U,21059Q,2023/2/9 19:50,156256,15.2231953,0.0008335,97.5798,175.7429,359.9243,0.199,0,999,8995,0.0015126,0.00034957,0,3783241,0 SPACEBEE-106,1 48893U 21059Q   23040.82648329  .00034957  00000-0  15126-2 0  9995,2 48893  97.5798 175.7429 0008335 359.9243   0.1990 15.22319530 89959,2021-059Q,48893,6876.983,94.592,504.58,493.116,0,2023/3/26
GENERATED VIA SPACETRACK.ORG API,18 SPCS,48893,SPACEBEE-106,PAYLOAD,U,21059Q,2023/2/9 21:24,265408,15.22326243,0.0008331,97.58,175.8093,359.5831,0.5396,0,999,8996,0.0015733,0.00036377,0,3784184,0 SPACEBEE-106,1 48893U 21059Q   23040.89221372  .00036377  00000-0  15733-2 0  9999,2 48893  97.5800 175.8093 0008331 359.5831   0.5396 15.22326243 89960,2021-059Q,48893,6876.963,94.592,504.557,493.099,0,2023/3/27
GENERATED VIA SPACETRACK.ORG API,18 SPCS,48893,SPACEBEE-106,PAYLOAD,U,21059Q,2023/2/10 8:27,731392,15.22366559,0.0008335,97.5798,176.2732,357.7617,2.358,0,999,9003,0.0018799,0.00043573,0,3784227,0 SPACEBEE-106,1 48893U 21059Q   23041.35232328  .00043573  00000-0  18799-2 0  9995,2 48893  97.5798 176.2732 0008335 357.7617   2.3580 15.22366559 90036,2021-059Q,48893,6876.842,94.59,504.438,492.975,0,2023/3/28
GENERATED VIA SPACETRACK.ORG API,18 SPCS,48893,SPACEBEE-106,PAYLOAD,U,21059Q,2023/2/10 14:45,578752,15.22383005,0.0008306,97.5798,176.5383,356.7694,3.3487,0,999,9007,0.0016531,0.00038299,0,3785071,0 SPACEBEE-106,1 48893U 21059Q   23041.61523818  .00038299  00000-0  16531-2 0  9992,2 48893  97.5798 176.5383 0008306 356.7694   3.3487 15.22383005 90079,2021-059Q,48893,6876.792,94.589,504.369,492.945,0,2023/3/29
GENERATED VIA SPACETRACK.ORG API,18 SPCS,48893,SPACEBEE-106,PAYLOAD,U,21059Q,2023/2/10 22:39,936512,15.2241158,0.0008337,97.5794,176.8694,355.2532,4.8623,0,999,9012,0.0017463,0.00040509,0,3785756,0 SPACEBEE-106,1 48893U 21059Q   23041.94387658  .00040509  00000-0  17463-2 0  9990,2 48893  97.5794 176.8694 0008337 355.2532   4.8623 15.22411580 90126,2021-059Q,48893,6876.706,94.587,504.304,492.838,0,2023/3/30
GENERATED VIA SPACETRACK.ORG API,18 SPCS,48893,SPACEBEE-106,PAYLOAD,U,21059Q,2023/2/11 6:32,794880,15.22437453,0.0008354,97.5793,177.2008,353.8411,6.2721,0,999,9017,0.0017438,0.00040481,0,3786144,0 SPACEBEE-106,1 48893U 21059Q   23042.27250920  .00040481  00000-0  17438-2 0  9999,2 48893  97.5793 177.2008 0008354 353.8411   6.2721 15.22437453 90175,2021-059Q,48893,6876.628,94.585,504.238,492.748,0,2023/3/31
GENERATED VIA SPACETRACK.ORG API,18 SPCS,48893,SPACEBEE-106,PAYLOAD,U,21059Q,2023/2/11 20:44,459840,15.22486269,0.0008511,97.579,177.7973,351.1733,8.9352,0,999,9026,0.0016766,0.00038968,0,3786577,0 SPACEBEE-106,1 48893U 21059Q   23042.86403310  .00038968  00000-0  16766-2 0  9997,2 48893  97.5790 177.7973 0008511 351.1733   8.9352 15.22486269 90269,2021-059Q,48893,6876.481,94.582,504.199,492.493,0,2023/4/1
GENERATED VIA SPACETRACK.ORG API,18 SPCS,48893,SPACEBEE-106,PAYLOAD,U,21059Q,2023/2/12 3:02,503168,15.22504941,0.0008378,97.5794,178.0624,350.5966,9.5112,0,999,9030,0.0016598,0.00038595,0,3786715,0 SPACEBEE-106,1 48893U 21059Q   23043.12692712  .00038595  00000-0  16598-2 0  9992,2 48893  97.5794 178.0624 0008378 350.5966   9.5112 15.22504941 90306,2021-059Q,48893,6876.425,94.581,504.051,492.529,0,2023/4/2
